{"type":"FeatureCollection","features":[{"type":"Feature","geometry":{"type":"Point","coordinates":[-15.44495,27.897630555555555]},"properties":{"station_id":"air-aguimes","name":"Aguimes","island_id":"gran-canaria","municipality_id":"35002","status":"VALIDATED","source":"Red Canaria de Calidad del Aire","period":"2025","PM10":13.0,"PM10_date":"2025-12-31","PM2.5":11.0,"PM2.5_date":"2025-12-31","NO2":14.0,"NO2_date":"2025-12-31","O3":46.0,"O3_date":"2025-12-31","SO2":4.4,"SO2_date":"2025-12-31"}},{"type":"Feature","geometry":{"type":"Point","coordinates":[-15.461152777777777,27.801319444444445]},"properties":{"station_id":"air-castillo-romeral","name":"Castillo Romeral","island_id":"gran-canaria","municipality_id":"35019","status":"VALIDATED","source":"Red Canaria de Calidad del Aire","period":"2025","PM10":16.0,"PM10_date":"2025-12-31","PM2.5":5.5,"PM2.5_date":"2025-12-31","NO2":8.2,"NO2_date":"2025-12-31","O3":54.0,"O3_date":"2025-12-31","SO2":4.4,"SO2_date":"2025-12-31"}},{"type":"Feature","geometry":{"type":"Point","coordinates":[-15.424399999999999,27.814533333333333]},"properties":{"station_id":"air-itc","name":"ITC","island_id":"gran-canaria","municipality_id":"35022","status":"VALIDATED","source":"Red Canaria de Calidad del Aire","period":"2025","PM10":9.0,"PM10_date":"2025-12-31","PM2.5":8.5,"PM2.5_date":"2025-12-31","NO2":13.0,"NO2_date":"2025-12-31","O3":75.0,"O3_date":"2025-12-31","SO2":4.6,"SO2_date":"2025-12-31"}},{"type":"Feature","geometry":{"type":"Point","coordinates":[-15.41448888888889,28.026191666666666]},"properties":{"station_id":"air-la-loma","name":"La Loma","island_id":"gran-canaria","municipality_id":"35026","status":"VALIDATED","source":"Red Canaria de Calidad del Aire","period":"2025","PM10":20.0,"PM10_date":"2025-12-31","PM2.5":4.8,"PM2.5_date":"2025-12-31","NO2":13.0,"NO2_date":"2025-12-31","O3":67.0,"O3_date":"2025-12-31","SO2":5.4,"SO2_date":"2025-12-31"}},{"type":"Feature","geometry":{"type":"Point","coordinates":[-15.4161,28.029888888888888]},"properties":{"station_id":"air-lezcano","name":"Lezcano","island_id":"gran-canaria","municipality_id":"35026","status":"VALIDATED","source":"Red Canaria de Calidad del Aire","period":"2025","PM10":17.0,"PM10_date":"2025-12-31","PM2.5":3.2,"PM2.5_date":"2025-12-31","NO2":19.0,"NO2_date":"2025-12-31","O3":61.0,"O3_date":"2025-12-31","SO2":4.4,"SO2_date":"2025-12-31"}},{"type":"Feature","geometry":{"type":"Point","coordinates":[-15.411880555555555,28.00351388888889]},"properties":{"station_id":"air-parque-de-san-juan","name":"Parque de San Juan","island_id":"gran-canaria","municipality_id":"35026","status":"VALIDATED","source":"Red Canaria de Calidad del Aire","period":"2025","PM10":17.0,"PM10_date":"2025-12-31","PM2.5":6.0,"PM2.5_date":"2025-12-31","NO2":9.8,"NO2_date":"2025-12-31","O3":53.0,"O3_date":"2025-12-31","SO2":6.0,"SO2_date":"2025-12-31"}},{"type":"Feature","geometry":{"type":"Point","coordinates":[-15.521033333333333,28.111286111111113]},"properties":{"station_id":"air-polideportivo-afonso","name":"Polideportivo Afonso","island_id":"gran-canaria","municipality_id":"35006","status":"VALIDATED","source":"Red Canaria de Calidad del Aire","period":"2025","PM10":22.0,"PM10_date":"2025-12-31","PM2.5":9.7,"PM2.5_date":"2025-12-31","NO2":6.0,"NO2_date":"2025-12-31","O3":42.0,"O3_date":"2025-12-31","SO2":6.0,"SO2_date":"2025-12-31"}},{"type":"Feature","geometry":{"type":"Point","coordinates":[-15.54186111111111,27.77259722222222]},"properties":{"station_id":"air-san-agustin","name":"San Agustin","island_id":"gran-canaria","municipality_id":"35019","status":"VALIDATED","source":"Red Canaria de Calidad del Aire","period":"2025","PM10":13.0,"PM10_date":"2025-12-31","PM2.5":7.8,"PM2.5_date":"2025-12-31","NO2":11.0,"NO2_date":"2025-12-31","O3":69.0,"O3_date":"2025-12-31","SO2":4.4,"SO2_date":"2025-12-31"}},{"type":"Feature","geometry":{"type":"Point","coordinates":[-17.11273611111111,28.08925]},"properties":{"station_id":"air-centro-de-visitantes","name":"Centro de Visitantes","island_id":"la-gomera","municipality_id":"38036","status":"VALIDATED","source":"Red Canaria de Calidad del Aire","period":"2025","PM10":null,"PM10_date":null,"PM2.5":null,"PM2.5_date":null,"NO2":null,"NO2_date":null,"O3":null,"O3_date":null,"SO2":4.4,"SO2_date":"2025-12-31"}},{"type":"Feature","geometry":{"type":"Point","coordinates":[-17.921683333333334,27.831775]},"properties":{"station_id":"air-echedo","name":"Echedo","island_id":"el-hierro","municipality_id":"38048","status":"VALIDATED","source":"Red Canaria de Calidad del Aire","period":"2025","PM10":4.1,"PM10_date":"2025-12-31","PM2.5":4.0,"PM2.5_date":"2025-12-31","NO2":null,"NO2_date":null,"O3":81.0,"O3_date":"2025-12-31","SO2":null,"SO2_date":null}},{"type":"Feature","geometry":{"type":"Point","coordinates":[-17.77416388888889,28.665591666666664]},"properties":{"station_id":"air-el-pilar","name":"El Pilar","island_id":"la-palma","municipality_id":"38008","status":"VALIDATED","source":"Red Canaria de Calidad del Aire","period":"2025","PM10":22.0,"PM10_date":"2025-12-31","PM2.5":8.9,"PM2.5_date":"2025-12-31","NO2":14.0,"NO2_date":"2025-12-31","O3":59.0,"O3_date":"2025-12-31","SO2":3.7,"SO2_date":"2025-12-31"}},{"type":"Feature","geometry":{"type":"Point","coordinates":[-17.775558333333333,28.667708333333334]},"properties":{"station_id":"air-la-grama","name":"La Grama","island_id":"la-palma","municipality_id":"38008","status":"VALIDATED","source":"Red Canaria de Calidad del Aire","period":"2025","PM10":20.0,"PM10_date":"2025-12-31","PM2.5":6.3,"PM2.5_date":"2025-12-31","NO2":8.2,"NO2_date":"2025-12-31","O3":59.0,"O3_date":"2025-12-31","SO2":4.3,"SO2_date":"2025-12-31"}},{"type":"Feature","geometry":{"type":"Point","coordinates":[-17.782522222222223,28.805083333333336]},"properties":{"station_id":"air-las-balsas","name":"Las Balsas","island_id":"la-palma","municipality_id":"38033","status":"VALIDATED","source":"Red Canaria de Calidad del Aire","period":"2025","PM10":1.5,"PM10_date":"2025-12-31","PM2.5":null,"PM2.5_date":null,"NO2":6.0,"NO2_date":"2025-12-31","O3":76.0,"O3_date":"2025-12-31","SO2":6.0,"SO2_date":"2025-12-31"}},{"type":"Feature","geometry":{"type":"Point","coordinates":[-17.118069444444444,28.090152777777778]},"properties":{"station_id":"air-las-galanas","name":"Las Galanas","island_id":"la-gomera","municipality_id":"38036","status":"VALIDATED","source":"Red Canaria de Calidad del Aire","period":"2025","PM10":8.5,"PM10_date":"2025-12-31","PM2.5":2.8,"PM2.5_date":"2025-12-31","NO2":9.5,"NO2_date":"2025-12-31","O3":80.0,"O3_date":"2025-12-31","SO2":4.4,"SO2_date":"2025-12-31"}},{"type":"Feature","geometry":{"type":"Point","coordinates":[-17.120483333333333,28.09902222222222]},"properties":{"station_id":"air-residencia-escolar","name":"Residencia Escolar","island_id":"la-gomera","municipality_id":"38036","status":"VALIDATED","source":"Red Canaria de Calidad del Aire","period":"2025","PM10":8.3,"PM10_date":"2025-12-31","PM2.5":null,"PM2.5_date":null,"NO2":6.1,"NO2_date":"2025-12-31","O3":63.0,"O3_date":"2025-12-31","SO2":6.0,"SO2_date":"2025-12-31"}},{"type":"Feature","geometry":{"type":"Point","coordinates":[-17.7715,28.645258333333334]},"properties":{"station_id":"air-san-antonio","name":"San Antonio","island_id":"la-palma","municipality_id":"38009","status":"VALIDATED","source":"Red Canaria de Calidad del Aire","period":"2025","PM10":4.6,"PM10_date":"2025-12-31","PM2.5":4.0,"PM2.5_date":"2025-12-31","NO2":6.0,"NO2_date":"2025-12-31","O3":69.0,"O3_date":"2025-12-31","SO2":6.0,"SO2_date":"2025-12-31"}},{"type":"Feature","geometry":{"type":"Point","coordinates":[-13.547569444444445,28.97702222222222]},"properties":{"station_id":"air-arrecife","name":"Arrecife","island_id":"lanzarote","municipality_id":"35004","status":"VALIDATED","source":"Red Canaria de Calidad del Aire","period":"2025","PM10":24.0,"PM10_date":"2025-12-31","PM2.5":9.5,"PM2.5_date":"2025-12-31","NO2":19.0,"NO2_date":"2025-12-31","O3":61.0,"O3_date":"2025-12-31","SO2":6.4,"SO2_date":"2025-12-31"}},{"type":"Feature","geometry":{"type":"Point","coordinates":[-13.86083611111111,28.49837777777778]},"properties":{"station_id":"air-casa-palacio","name":"Casa Palacio","island_id":"fuerteventura","municipality_id":"35017","status":"VALIDATED","source":"Red Canaria de Calidad del Aire","period":"2025","PM10":8.5,"PM10_date":"2025-12-31","PM2.5":5.8,"PM2.5_date":"2025-12-31","NO2":16.0,"NO2_date":"2025-12-31","O3":69.0,"O3_date":"2025-12-31","SO2":6.0,"SO2_date":"2025-12-31"}},{"type":"Feature","geometry":{"type":"Point","coordinates":[-13.852363888888888,28.50037222222222]},"properties":{"station_id":"air-centro-de-arte","name":"Centro de Arte","island_id":"fuerteventura","municipality_id":"35017","status":"VALIDATED","source":"Red Canaria de Calidad del Aire","period":"2025","PM10":9.4,"PM10_date":"2025-12-31","PM2.5":2.2,"PM2.5_date":"2025-12-31","NO2":13.0,"NO2_date":"2025-12-31","O3":82.0,"O3_date":"2025-12-31","SO2":0.46,"SO2_date":"2025-12-31"}},{"type":"Feature","geometry":{"type":"Point","coordinates":[-13.551975,28.96791111111111]},"properties":{"station_id":"air-ciudad-deportiva","name":"Ciudad Deportiva","island_id":"lanzarote","municipality_id":"35004","status":"VALIDATED","source":"Red Canaria de Calidad del Aire","period":"2025","PM10":12.0,"PM10_date":"2025-12-31","PM2.5":8.5,"PM2.5_date":"2025-12-31","NO2":19.0,"NO2_date":"2025-12-31","O3":59.0,"O3_date":"2025-12-31","SO2":7.0,"SO2_date":"2025-12-31"}},{"type":"Feature","geometry":{"type":"Point","coordinates":[-13.51655,28.99031111111111]},"properties":{"station_id":"air-costa-teguise","name":"Costa Teguise","island_id":"lanzarote","municipality_id":"35024","status":"VALIDATED","source":"Red Canaria de Calidad del Aire","period":"2025","PM10":7.4,"PM10_date":"2025-12-31","PM2.5":5.7,"PM2.5_date":"2025-12-31","NO2":8.7,"NO2_date":"2025-12-31","O3":68.0,"O3_date":"2025-12-31","SO2":5.1,"SO2_date":"2025-12-31"}},{"type":"Feature","geometry":{"type":"Point","coordinates":[-13.849041666666666,28.506327777777777]},"properties":{"station_id":"air-el-charco","name":"El Charco","island_id":"fuerteventura","municipality_id":"35017","status":"VALIDATED","source":"Red Canaria de Calidad del Aire","period":"2025","PM10":27.0,"PM10_date":"2025-12-31","PM2.5":9.4,"PM2.5_date":"2025-12-31","NO2":16.0,"NO2_date":"2025-12-31","O3":70.0,"O3_date":"2025-12-31","SO2":4.4,"SO2_date":"2025-12-31"}},{"type":"Feature","geometry":{"type":"Point","coordinates":[-13.514038888888889,28.982866666666666]},"properties":{"station_id":"air-las-caletas","name":"Las Caletas","island_id":"lanzarote","municipality_id":"35024","status":"VALIDATED","source":"Red Canaria de Calidad del Aire","period":"2025","PM10":13.0,"PM10_date":"2025-12-31","PM2.5":6.0,"PM2.5_date":"2025-12-31","NO2":8.3,"NO2_date":"2025-12-31","O3":75.0,"O3_date":"2025-12-31","SO2":5.2,"SO2_date":"2025-12-31"}},{"type":"Feature","geometry":{"type":"Point","coordinates":[-13.853708333333334,28.50283888888889]},"properties":{"station_id":"air-parque-de-la-piedra","name":"Parque de La Piedra","island_id":"fuerteventura","municipality_id":"35017","status":"VALIDATED","source":"Red Canaria de Calidad del Aire","period":"2025","PM10":23.0,"PM10_date":"2025-12-31","PM2.5":6.9,"PM2.5_date":"2025-12-31","NO2":19.0,"NO2_date":"2025-12-31","O3":69.0,"O3_date":"2025-12-31","SO2":0.45,"SO2_date":"2025-12-31"}},{"type":"Feature","geometry":{"type":"Point","coordinates":[-14.004205555555556,28.527166666666666]},"properties":{"station_id":"air-tefia","name":"Tefia","island_id":"fuerteventura","municipality_id":"35017","status":"VALIDATED","source":"Red Canaria de Calidad del Aire","period":"2025","PM10":6.4,"PM10_date":"2025-12-31","PM2.5":4.7,"PM2.5_date":"2025-12-31","NO2":null,"NO2_date":null,"O3":83.0,"O3_date":"2025-12-31","SO2":null,"SO2_date":null}},{"type":"Feature","geometry":{"type":"Point","coordinates":[-15.416305555555557,28.035122222222224]},"properties":{"station_id":"air-jinamar-fase-3","name":"Jinamar fase 3","island_id":"gran-canaria","municipality_id":"35016","status":"VALIDATED","source":"Red Canaria de Calidad del Aire","period":"2025","PM10":12.0,"PM10_date":"2025-12-31","PM2.5":5.4,"PM2.5_date":"2025-12-31","NO2":14.0,"NO2_date":"2025-12-31","O3":53.0,"O3_date":"2025-12-31","SO2":4.4,"SO2_date":"2025-12-31"}},{"type":"Feature","geometry":{"type":"Point","coordinates":[-15.432813888888889,28.133755555555556]},"properties":{"station_id":"air-mercado-central","name":"Mercado Central","island_id":"gran-canaria","municipality_id":"35016","status":"VALIDATED","source":"Red Canaria de Calidad del Aire","period":"2025","PM10":11.0,"PM10_date":"2025-12-31","PM2.5":6.3,"PM2.5_date":"2025-12-31","NO2":27.0,"NO2_date":"2025-12-31","O3":45.0,"O3_date":"2025-12-31","SO2":6.0,"SO2_date":"2025-12-31"}},{"type":"Feature","geometry":{"type":"Point","coordinates":[-15.40915,28.031552777777776]},"properties":{"station_id":"air-nestor-alamo","name":"Nestor Alamo","island_id":"gran-canaria","municipality_id":"35016","status":"VALIDATED","source":"Red Canaria de Calidad del Aire","period":"2025","PM10":11.0,"PM10_date":"2025-12-31","PM2.5":6.4,"PM2.5_date":"2025-12-31","NO2":14.0,"NO2_date":"2025-12-31","O3":43.0,"O3_date":"2025-12-31","SO2":6.0,"SO2_date":"2025-12-31"}},{"type":"Feature","geometry":{"type":"Point","coordinates":[-15.421416666666666,28.10291666666667]},"properties":{"station_id":"air-san-nicolas","name":"San Nicolas","island_id":"gran-canaria","municipality_id":"35016","status":"VALIDATED","source":"Red Canaria de Calidad del Aire","period":"2025","PM10":11.0,"PM10_date":"2025-12-31","PM2.5":5.5,"PM2.5_date":"2025-12-31","NO2":9.4,"NO2_date":"2025-12-31","O3":66.0,"O3_date":"2025-12-31","SO2":6.0,"SO2_date":"2025-12-31"}},{"type":"Feature","geometry":{"type":"Point","coordinates":[-16.277694444444442,28.451024999999998]},"properties":{"station_id":"air-casa-cuna","name":"Casa Cuna","island_id":"tenerife","municipality_id":"38038","status":"VALIDATED","source":"Red Canaria de Calidad del Aire","period":"2025","PM10":16.0,"PM10_date":"2025-12-31","PM2.5":11.0,"PM2.5_date":"2025-12-31","NO2":25.0,"NO2_date":"2025-12-31","O3":55.0,"O3_date":"2025-12-31","SO2":2.0,"SO2_date":"2025-12-31"}},{"type":"Feature","geometry":{"type":"Point","coordinates":[-16.278752777777775,28.458163888888887]},"properties":{"station_id":"air-deposito-tristan","name":"Deposito Tristan","island_id":"tenerife","municipality_id":"38038","status":"VALIDATED","source":"Red Canaria de Calidad del Aire","period":"2025","PM10":9.5,"PM10_date":"2025-12-31","PM2.5":10.0,"PM2.5_date":"2025-12-31","NO2":17.0,"NO2_date":"2025-12-31","O3":55.0,"O3_date":"2025-12-31","SO2":2.0,"SO2_date":"2025-12-31"}},{"type":"Feature","geometry":{"type":"Point","coordinates":[-16.27185,28.45663888888889]},"properties":{"station_id":"air-garcia-escamez","name":"Garcia Escamez","island_id":"tenerife","municipality_id":"38038","status":"VALIDATED","source":"Red Canaria de Calidad del Aire","period":"2025","PM10":31.0,"PM10_date":"2025-07-29","PM2.5":15.0,"PM2.5_date":"2025-07-29","NO2":20.0,"NO2_date":"2025-07-29","O3":63.0,"O3_date":"2025-07-29","SO2":3.8,"SO2_date":"2025-07-29"}},{"type":"Feature","geometry":{"type":"Point","coordinates":[-16.264877777777777,28.462994444444444]},"properties":{"station_id":"air-parque-la-granja","name":"Parque La Granja","island_id":"tenerife","municipality_id":"38038","status":"VALIDATED","source":"Red Canaria de Calidad del Aire","period":"2025","PM10":55.0,"PM10_date":"2025-07-29","PM2.5":24.0,"PM2.5_date":"2025-07-29","NO2":21.0,"NO2_date":"2025-07-29","O3":21.0,"O3_date":"2025-07-29","SO2":2.3,"SO2_date":"2025-07-29"}},{"type":"Feature","geometry":{"type":"Point","coordinates":[-16.26329722222222,28.457991666666665]},"properties":{"station_id":"air-piscina-municipal","name":"Piscina Municipal","island_id":"tenerife","municipality_id":"38038","status":"VALIDATED","source":"Red Canaria de Calidad del Aire","period":"2025","PM10":10.0,"PM10_date":"2025-12-31","PM2.5":11.0,"PM2.5_date":"2025-12-31","NO2":37.0,"NO2_date":"2025-12-31","O3":42.0,"O3_date":"2025-12-31","SO2":7.0,"SO2_date":"2025-12-31"}},{"type":"Feature","geometry":{"type":"Point","coordinates":[-16.27679722222222,28.455275]},"properties":{"station_id":"air-tena-artigas","name":"Tena Artigas","island_id":"tenerife","municipality_id":"38038","status":"VALIDATED","source":"Red Canaria de Calidad del Aire","period":"2025","PM10":6.6,"PM10_date":"2025-12-31","PM2.5":5.0,"PM2.5_date":"2025-12-31","NO2":9.5,"NO2_date":"2025-12-31","O3":57.0,"O3_date":"2025-12-31","SO2":7.0,"SO2_date":"2025-12-31"}},{"type":"Feature","geometry":{"type":"Point","coordinates":[-16.270238888888887,28.459325]},"properties":{"station_id":"air-tio-pino","name":"Tio Pino","island_id":"tenerife","municipality_id":"38038","status":"VALIDATED","source":"Red Canaria de Calidad del Aire","period":"2025","PM10":12.0,"PM10_date":"2025-12-31","PM2.5":6.3,"PM2.5_date":"2025-12-31","NO2":null,"NO2_date":null,"O3":53.0,"O3_date":"2025-12-31","SO2":7.0,"SO2_date":"2025-12-31"}},{"type":"Feature","geometry":{"type":"Point","coordinates":[-16.261877777777777,28.462183333333332]},"properties":{"station_id":"air-tome-cano","name":"Tome Cano","island_id":"tenerife","municipality_id":"38038","status":"VALIDATED","source":"Red Canaria de Calidad del Aire","period":"2025","PM10":7.3,"PM10_date":"2025-12-31","PM2.5":5.2,"PM2.5_date":"2025-12-31","NO2":13.0,"NO2_date":"2025-12-31","O3":54.0,"O3_date":"2025-12-31","SO2":6.0,"SO2_date":"2025-12-31"}},{"type":"Feature","geometry":{"type":"Point","coordinates":[-16.570727777777776,28.383122222222223]},"properties":{"station_id":"air-balsa-de-zamora","name":"Balsa de Zamora","island_id":"tenerife","municipality_id":"38031","status":"VALIDATED","source":"Red Canaria de Calidad del Aire","period":"2025","PM10":7.8,"PM10_date":"2025-12-31","PM2.5":6.1,"PM2.5_date":"2025-12-31","NO2":6.5,"NO2_date":"2025-12-31","O3":55.0,"O3_date":"2025-12-31","SO2":6.0,"SO2_date":"2025-12-31"}},{"type":"Feature","geometry":{"type":"Point","coordinates":[-16.35813611111111,28.393413888888887]},"properties":{"station_id":"air-barranco-hondo","name":"Barranco Hondo","island_id":"tenerife","municipality_id":"38011","status":"VALIDATED","source":"Red Canaria de Calidad del Aire","period":"2025","PM10":10.0,"PM10_date":"2025-12-31","PM2.5":10.0,"PM2.5_date":"2025-12-31","NO2":9.4,"NO2_date":"2025-12-31","O3":75.0,"O3_date":"2025-12-31","SO2":0.57,"SO2_date":"2025-12-31"}},{"type":"Feature","geometry":{"type":"Point","coordinates":[-16.361941666666667,28.37671388888889]},"properties":{"station_id":"air-caletillas","name":"Caletillas","island_id":"tenerife","municipality_id":"38011","status":"VALIDATED","source":"Red Canaria de Calidad del Aire","period":"2025","PM10":7.9,"PM10_date":"2025-12-31","PM2.5":3.5,"PM2.5_date":"2025-12-31","NO2":13.0,"NO2_date":"2025-12-31","O3":89.0,"O3_date":"2025-12-31","SO2":0.7,"SO2_date":"2025-12-31"}},{"type":"Feature","geometry":{"type":"Point","coordinates":[-16.368333333333332,28.380152777777777]},"properties":{"station_id":"air-deposito-la-guancha","name":"Deposito La Guancha","island_id":"tenerife","municipality_id":"38011","status":"VALIDATED","source":"Red Canaria de Calidad del Aire","period":"2025","PM10":13.0,"PM10_date":"2025-12-31","PM2.5":3.7,"PM2.5_date":"2025-12-31","NO2":5.9,"NO2_date":"2025-12-31","O3":77.0,"O3_date":"2025-12-31","SO2":0.95,"SO2_date":"2025-12-31"}},{"type":"Feature","geometry":{"type":"Point","coordinates":[-16.523711111111112,28.145066666666665]},"properties":{"station_id":"air-el-rio","name":"El Rio","island_id":"tenerife","municipality_id":"38005","status":"VALIDATED","source":"Red Canaria de Calidad del Aire","period":"2025","PM10":7.3,"PM10_date":"2025-12-31","PM2.5":1.5,"PM2.5_date":"2025-12-31","NO2":6.1,"NO2_date":"2025-12-31","O3":79.0,"O3_date":"2025-12-31","SO2":4.4,"SO2_date":"2025-12-31"}},{"type":"Feature","geometry":{"type":"Point","coordinates":[-16.655825,28.00778888888889]},"properties":{"station_id":"air-galletas","name":"Galletas","island_id":"tenerife","municipality_id":"38006","status":"VALIDATED","source":"Red Canaria de Calidad del Aire","period":"2025","PM10":13.0,"PM10_date":"2025-12-31","PM2.5":3.5,"PM2.5_date":"2025-12-31","NO2":15.0,"NO2_date":"2025-12-31","O3":70.0,"O3_date":"2025-12-31","SO2":1.4,"SO2_date":"2025-12-31"}},{"type":"Feature","geometry":{"type":"Point","coordinates":[-16.536055555555556,28.047311111111114]},"properties":{"station_id":"air-granadilla","name":"Granadilla","island_id":"tenerife","municipality_id":"38017","status":"VALIDATED","source":"Red Canaria de Calidad del Aire","period":"2025","PM10":7.9,"PM10_date":"2025-12-31","PM2.5":4.0,"PM2.5_date":"2025-12-31","NO2":8.3,"NO2_date":"2025-12-31","O3":null,"O3_date":null,"SO2":4.4,"SO2_date":"2025-12-31"}},{"type":"Feature","geometry":{"type":"Point","coordinates":[-16.371972222222222,28.38053888888889]},"properties":{"station_id":"air-igueste","name":"Igueste","island_id":"tenerife","municipality_id":"38011","status":"VALIDATED","source":"Red Canaria de Calidad del Aire","period":"2025","PM10":7.0,"PM10_date":"2025-12-31","PM2.5":0.84,"PM2.5_date":"2025-12-31","NO2":3.4,"NO2_date":"2025-12-31","O3":76.0,"O3_date":"2025-12-31","SO2":2.9,"SO2_date":"2025-12-31"}},{"type":"Feature","geometry":{"type":"Point","coordinates":[-16.399916666666666,28.337338888888887]},"properties":{"station_id":"air-la-hidalga","name":"La Hidalga","island_id":"tenerife","municipality_id":"38004","status":"VALIDATED","source":"Red Canaria de Calidad del Aire","period":"2025","PM10":12.0,"PM10_date":"2025-12-31","PM2.5":6.4,"PM2.5_date":"2025-12-31","NO2":6.4,"NO2_date":"2025-12-31","O3":68.0,"O3_date":"2025-12-31","SO2":8.0,"SO2_date":"2025-12-31"}},{"type":"Feature","geometry":{"type":"Point","coordinates":[-16.536055555555556,28.047311111111114]},"properties":{"station_id":"air-medano","name":"Medano","island_id":"tenerife","municipality_id":"38017","status":"VALIDATED","source":"Red Canaria de Calidad del Aire","period":"2025","PM10":13.0,"PM10_date":"2025-12-31","PM2.5":7.8,"PM2.5_date":"2025-12-31","NO2":10.0,"NO2_date":"2025-12-31","O3":null,"O3_date":null,"SO2":0.43,"SO2_date":"2025-12-31"}},{"type":"Feature","geometry":{"type":"Point","coordinates":[-16.559844444444444,28.080030555555556]},"properties":{"station_id":"air-san-isidro","name":"San Isidro","island_id":"tenerife","municipality_id":"38017","status":"VALIDATED","source":"Red Canaria de Calidad del Aire","period":"2025","PM10":13.0,"PM10_date":"2025-12-31","PM2.5":3.5,"PM2.5_date":"2025-12-31","NO2":9.3,"NO2_date":"2025-12-31","O3":85.0,"O3_date":"2025-12-31","SO2":0.43,"SO2_date":"2025-12-31"}},{"type":"Feature","geometry":{"type":"Point","coordinates":[-16.471616666666666,28.111386111111113]},"properties":{"station_id":"air-tajao","name":"Tajao","island_id":"tenerife","municipality_id":"38005","status":"VALIDATED","source":"Red Canaria de Calidad del Aire","period":"2025","PM10":8.2,"PM10_date":"2025-12-31","PM2.5":1.8,"PM2.5_date":"2025-12-31","NO2":11.0,"NO2_date":"2025-12-31","O3":null,"O3_date":null,"SO2":1.7,"SO2_date":"2025-12-31"}}]}