{"type":"FeatureCollection","features":[{"type":"Feature","geometry":{"type":"Point","coordinates":[-17.9805434,27.7042581]},"properties":{"facility_id":"regcess:0538002153","name":"C.P. EL PINAR","island_id":"el-hierro","status":"VERIFIED"}},{"type":"Feature","geometry":{"type":"Point","coordinates":[-17.9150295,27.8151756]},"properties":{"facility_id":"regcess:0538002151","name":"C.S. VALVERDE","island_id":"el-hierro","status":"VERIFIED"}},{"type":"Feature","geometry":{"type":"Point","coordinates":[-14.1505737,28.1836073]},"properties":{"facility_id":"regcess:0535002132","name":"C.L. LA LAJITA","island_id":"fuerteventura","status":"VERIFIED"}},{"type":"Feature","geometry":{"type":"Point","coordinates":[-13.9270188,28.6108404]},"properties":{"facility_id":"regcess:0535002133","name":"C.L. LA OLIVA","island_id":"fuerteventura","status":"VERIFIED"}},{"type":"Feature","geometry":{"type":"Point","coordinates":[-14.1214435,28.376896]},"properties":{"facility_id":"regcess:0535002125","name":"C.L. PAJARA","island_id":"fuerteventura","status":"VERIFIED"}},{"type":"Feature","geometry":{"type":"Point","coordinates":[-13.8708787,28.7407981]},"properties":{"facility_id":"regcess:0535002139","name":"C.S. CORRALEJO","island_id":"fuerteventura","status":"VERIFIED"}},{"type":"Feature","geometry":{"type":"Point","coordinates":[-13.8662984,28.5064175]},"properties":{"facility_id":"regcess:0535002134","name":"C.S. DR ARISTIDES HERNANDEZ","island_id":"fuerteventura","status":"VERIFIED"}},{"type":"Feature","geometry":{"type":"Point","coordinates":[-14.3478753,28.0526594]},"properties":{"facility_id":"regcess:0535002128","name":"C.S. MORRO JABLE","island_id":"fuerteventura","status":"VERIFIED"}},{"type":"Feature","geometry":{"type":"Point","coordinates":[-13.8590089,28.5027104]},"properties":{"facility_id":"regcess:0535002124","name":"C.S. PUERTO DEL ROSARIO","island_id":"fuerteventura","status":"VERIFIED"}},{"type":"Feature","geometry":{"type":"Point","coordinates":[-15.4446065,27.8536769]},"properties":{"facility_id":"regcess:0535003751","name":"C. S. VECINDARIO","island_id":"gran-canaria","status":"VERIFIED"}},{"type":"Feature","geometry":{"type":"Point","coordinates":[-15.3886205,27.9106063]},"properties":{"facility_id":"regcess:0535002167","name":"C.L. CARRIZAL","island_id":"gran-canaria","status":"VERIFIED"}},{"type":"Feature","geometry":{"type":"Point","coordinates":[-15.4820816,28.1350312]},"properties":{"facility_id":"regcess:0535002165","name":"C.L. COSTA AYALA","island_id":"gran-canaria","status":"VERIFIED"}},{"type":"Feature","geometry":{"type":"Point","coordinates":[-15.4274257,27.8764543]},"properties":{"facility_id":"regcess:0535002145","name":"C.L. CRUCE DE ARINAGA","island_id":"gran-canaria","status":"VERIFIED"}},{"type":"Feature","geometry":{"type":"Point","coordinates":[-15.4282423,28.0414374]},"properties":{"facility_id":"regcess:0535002170","name":"C.L. MARZAGAN","island_id":"gran-canaria","status":"VERIFIED"}},{"type":"Feature","geometry":{"type":"Point","coordinates":[-15.6208021,28.0844075]},"properties":{"facility_id":"regcess:0535002202","name":"C.L. MONTAÑA ALTA","island_id":"gran-canaria","status":"VERIFIED"}},{"type":"Feature","geometry":{"type":"Point","coordinates":[-15.3939188,27.8586851]},"properties":{"facility_id":"regcess:0535002146","name":"C.L. PLAYA DE ARINAGA","island_id":"gran-canaria","status":"VERIFIED"}},{"type":"Feature","geometry":{"type":"Point","coordinates":[-15.7623258,27.8196686]},"properties":{"facility_id":"regcess:0535002177","name":"C.L. PLAYA DE MOGAN","island_id":"gran-canaria","status":"VERIFIED"}},{"type":"Feature","geometry":{"type":"Point","coordinates":[-15.4602067,28.0598037]},"properties":{"facility_id":"regcess:0535002204","name":"C.L. TAFIRA","island_id":"gran-canaria","status":"VERIFIED"}},{"type":"Feature","geometry":{"type":"Point","coordinates":[-15.6734845,28.0795565]},"properties":{"facility_id":"regcess:0535002143","name":"C.L. VALLE DE AGAETE","island_id":"gran-canaria","status":"VERIFIED"}},{"type":"Feature","geometry":{"type":"Point","coordinates":[-15.7009657,28.1029022]},"properties":{"facility_id":"regcess:0535002142","name":"C.S. AGAETE","island_id":"gran-canaria","status":"VERIFIED"}},{"type":"Feature","geometry":{"type":"Point","coordinates":[-15.4464953,27.9032049]},"properties":{"facility_id":"regcess:0535002144","name":"C.S. AGUIMES","island_id":"gran-canaria","status":"VERIFIED"}},{"type":"Feature","geometry":{"type":"Point","coordinates":[-15.4360855,28.1341842]},"properties":{"facility_id":"regcess:0535002148","name":"C.S. ALCARAVANERAS","island_id":"gran-canaria","status":"VERIFIED"}},{"type":"Feature","geometry":{"type":"Point","coordinates":[-15.6768203,27.76292]},"properties":{"facility_id":"regcess:0535002175","name":"C.S. ARGUINEGUIN","island_id":"gran-canaria","status":"VERIFIED"}},{"type":"Feature","geometry":{"type":"Point","coordinates":[-15.5271493,28.1174759]},"properties":{"facility_id":"regcess:0535002149","name":"C.S. ARUCAS","island_id":"gran-canaria","status":"VERIFIED"}},{"type":"Feature","geometry":{"type":"Point","coordinates":[-15.4451367,28.1123602]},"properties":{"facility_id":"regcess:0535002153","name":"C.S. BARRIO ATLANTICO","island_id":"gran-canaria","status":"VERIFIED"}},{"type":"Feature","geometry":{"type":"Point","coordinates":[-15.4227971,28.1178287]},"properties":{"facility_id":"regcess:0535002141","name":"C.S. CANALEJAS","island_id":"gran-canaria","status":"VERIFIED"}},{"type":"Feature","geometry":{"type":"Point","coordinates":[-15.4208407,28.0760823]},"properties":{"facility_id":"regcess:0535002155","name":"C.S. CONO SUR","island_id":"gran-canaria","status":"VERIFIED"}},{"type":"Feature","geometry":{"type":"Point","coordinates":[-15.445335,28.1120823]},"properties":{"facility_id":"regcess:0535002156","name":"C.S. CUEVA TORRES","island_id":"gran-canaria","status":"VERIFIED"}},{"type":"Feature","geometry":{"type":"Point","coordinates":[-15.42119,27.9949639]},"properties":{"facility_id":"regcess:0535002157","name":"C.S. EL CALERO","island_id":"gran-canaria","status":"VERIFIED"}},{"type":"Feature","geometry":{"type":"Point","coordinates":[-15.4380777,28.1107491]},"properties":{"facility_id":"regcess:0535002159","name":"C.S. ESCALERITAS","island_id":"gran-canaria","status":"VERIFIED"}},{"type":"Feature","geometry":{"type":"Point","coordinates":[-15.567275,28.0994152]},"properties":{"facility_id":"regcess:0535002160","name":"C.S. FIRGAS","island_id":"gran-canaria","status":"VERIFIED"}},{"type":"Feature","geometry":{"type":"Point","coordinates":[-15.6566497,28.1451326]},"properties":{"facility_id":"regcess:0535002162","name":"C.S. GALDAR","island_id":"gran-canaria","status":"VERIFIED"}},{"type":"Feature","geometry":{"type":"Point","coordinates":[-15.4410561,28.1274125]},"properties":{"facility_id":"regcess:0535002164","name":"C.S. GUANARTEME","island_id":"gran-canaria","status":"VERIFIED"}},{"type":"Feature","geometry":{"type":"Point","coordinates":[-15.4248665,27.9174162]},"properties":{"facility_id":"regcess:0535002166","name":"C.S. INGENIO","island_id":"gran-canaria","status":"VERIFIED"}},{"type":"Feature","geometry":{"type":"Point","coordinates":[-15.4087096,28.0263406]},"properties":{"facility_id":"regcess:0535002168","name":"C.S. JINAMAR","island_id":"gran-canaria","status":"VERIFIED"}},{"type":"Feature","geometry":{"type":"Point","coordinates":[-15.42119,27.9949639]},"properties":{"facility_id":"regcess:0535002171","name":"C.S. LAS REMUDAS","island_id":"gran-canaria","status":"VERIFIED"}},{"type":"Feature","geometry":{"type":"Point","coordinates":[-15.4415627,28.0865629]},"properties":{"facility_id":"regcess:0535002205","name":"C.S. LOMO BLANCO","island_id":"gran-canaria","status":"VERIFIED"}},{"type":"Feature","geometry":{"type":"Point","coordinates":[-15.5856922,27.7771902]},"properties":{"facility_id":"regcess:0535002172","name":"C.S. MASPALOMAS","island_id":"gran-canaria","status":"VERIFIED"}},{"type":"Feature","geometry":{"type":"Point","coordinates":[-15.4333698,28.1043712]},"properties":{"facility_id":"regcess:0535002174","name":"C.S. MILLER BAJO","island_id":"gran-canaria","status":"VERIFIED"}},{"type":"Feature","geometry":{"type":"Point","coordinates":[-15.581545,28.1126171]},"properties":{"facility_id":"regcess:0535002182","name":"C.S. MOYA","island_id":"gran-canaria","status":"VERIFIED"}},{"type":"Feature","geometry":{"type":"Point","coordinates":[-15.4414262,28.1162089]},"properties":{"facility_id":"regcess:0535002187","name":"C.S. PUERTO","island_id":"gran-canaria","status":"VERIFIED"}},{"type":"Feature","geometry":{"type":"Point","coordinates":[-15.4121119,27.9983474]},"properties":{"facility_id":"regcess:0535002188","name":"C.S. SAN GREGORIO","island_id":"gran-canaria","status":"VERIFIED"}},{"type":"Feature","geometry":{"type":"Point","coordinates":[-15.4134699,28.092875]},"properties":{"facility_id":"regcess:0535002186","name":"C.S. SAN JOSE","island_id":"gran-canaria","status":"VERIFIED"}},{"type":"Feature","geometry":{"type":"Point","coordinates":[-15.4204847,27.9956207]},"properties":{"facility_id":"regcess:0535002191","name":"C.S. SAN JUAN","island_id":"gran-canaria","status":"VERIFIED"}},{"type":"Feature","geometry":{"type":"Point","coordinates":[-15.5327886,28.0082091]},"properties":{"facility_id":"regcess:0535002192","name":"C.S. SAN MATEO","island_id":"gran-canaria","status":"VERIFIED"}},{"type":"Feature","geometry":{"type":"Point","coordinates":[-15.781872,27.986708]},"properties":{"facility_id":"regcess:0535002184","name":"C.S. SAN NICOLAS TOLENTINO","island_id":"gran-canaria","status":"VERIFIED"}},{"type":"Feature","geometry":{"type":"Point","coordinates":[-15.4260754,28.0960771]},"properties":{"facility_id":"regcess:0535002196","name":"C.S. SAN ROQUE","island_id":"gran-canaria","status":"VERIFIED"}},{"type":"Feature","geometry":{"type":"Point","coordinates":[-15.4960617,28.0393723]},"properties":{"facility_id":"regcess:0535002197","name":"C.S. SANTA BRIGIDA","island_id":"gran-canaria","status":"VERIFIED"}},{"type":"Feature","geometry":{"type":"Point","coordinates":[-15.6364111,28.1424406]},"properties":{"facility_id":"regcess:0535002200","name":"C.S. SANTA MARIA DE GUIA","island_id":"gran-canaria","status":"VERIFIED"}},{"type":"Feature","geometry":{"type":"Point","coordinates":[-15.4330097,28.1187192]},"properties":{"facility_id":"regcess:0535002203","name":"C.S. SCHAMANN","island_id":"gran-canaria","status":"VERIFIED"}},{"type":"Feature","geometry":{"type":"Point","coordinates":[-15.4759688,28.099059]},"properties":{"facility_id":"regcess:0535002206","name":"C.S. TAMARACEITE","island_id":"gran-canaria","status":"VERIFIED"}},{"type":"Feature","geometry":{"type":"Point","coordinates":[-15.5487542,28.0586754]},"properties":{"facility_id":"regcess:0535002211","name":"C.S. TEROR","island_id":"gran-canaria","status":"VERIFIED"}},{"type":"Feature","geometry":{"type":"Point","coordinates":[-15.4160765,28.0960881]},"properties":{"facility_id":"regcess:0535002218","name":"C.S. TRIANA","island_id":"gran-canaria","status":"VERIFIED"}},{"type":"Feature","geometry":{"type":"Point","coordinates":[-15.4967697,27.991915]},"properties":{"facility_id":"regcess:0535002220","name":"C.S. VALSEQUILLO","island_id":"gran-canaria","status":"VERIFIED"}},{"type":"Feature","geometry":{"type":"Point","coordinates":[-15.44539,27.8355]},"properties":{"facility_id":"regcess:0535002222","name":"CENTRO DE SALUD DE DOCTORAL","island_id":"gran-canaria","status":"VERIFIED"}},{"type":"Feature","geometry":{"type":"Point","coordinates":[-17.2188345,28.1110882]},"properties":{"facility_id":"regcess:0538002157","name":"C.S. SAN SEBASTIAN DE LA GOMERA","island_id":"la-gomera","status":"VERIFIED"}},{"type":"Feature","geometry":{"type":"Point","coordinates":[-17.9414694,28.6805233]},"properties":{"facility_id":"regcess:0538002282","name":"C.L. PUNTAGORDA","island_id":"la-palma","status":"VERIFIED"}},{"type":"Feature","geometry":{"type":"Point","coordinates":[-17.7846669,28.6634534]},"properties":{"facility_id":"regcess:0538002283","name":"C.S. BREÑA ALTA","island_id":"la-palma","status":"VERIFIED"}},{"type":"Feature","geometry":{"type":"Point","coordinates":[-17.7605172,28.6878532]},"properties":{"facility_id":"regcess:0538002169","name":"C.S. S/C DE LA PALMA","island_id":"la-palma","status":"VERIFIED"}},{"type":"Feature","geometry":{"type":"Point","coordinates":[-17.9340215,28.6391295]},"properties":{"facility_id":"regcess:0538002279","name":"C.S. TAZACORTE","island_id":"la-palma","status":"VERIFIED"}},{"type":"Feature","geometry":{"type":"Point","coordinates":[-13.5953501,28.95379]},"properties":{"facility_id":"regcess:0535002236","name":"C.L. COSTA TEGUISE","island_id":"lanzarote","status":"VERIFIED"}},{"type":"Feature","geometry":{"type":"Point","coordinates":[-13.4707598,29.0930225]},"properties":{"facility_id":"regcess:0535002230","name":"C.L. DE MALA","island_id":"lanzarote","status":"VERIFIED"}},{"type":"Feature","geometry":{"type":"Point","coordinates":[-13.774105,28.9383369]},"properties":{"facility_id":"regcess:0535002241","name":"C.L. PLAYA BLANCA","island_id":"lanzarote","status":"VERIFIED"}},{"type":"Feature","geometry":{"type":"Point","coordinates":[-13.5907777,28.9534998]},"properties":{"facility_id":"regcess:0535002229","name":"C.L. PLAYA HONDA","island_id":"lanzarote","status":"VERIFIED"}},{"type":"Feature","geometry":{"type":"Point","coordinates":[-13.6677502,28.92306]},"properties":{"facility_id":"regcess:0535002238","name":"C.L. PUERTO DEL CARMEN","island_id":"lanzarote","status":"VERIFIED"}},{"type":"Feature","geometry":{"type":"Point","coordinates":[-13.5678253,28.9783712]},"properties":{"facility_id":"regcess:0535002233","name":"C.L. TINAJO","island_id":"lanzarote","status":"VERIFIED"}},{"type":"Feature","geometry":{"type":"Point","coordinates":[-13.5716094,29.06366]},"properties":{"facility_id":"regcess:0535002234","name":"C.S. TEGUISE","island_id":"lanzarote","status":"VERIFIED"}},{"type":"Feature","geometry":{"type":"Point","coordinates":[-13.6545687,28.9545365]},"properties":{"facility_id":"regcess:0535002237","name":"C.S. TIAS","island_id":"lanzarote","status":"VERIFIED"}},{"type":"Feature","geometry":{"type":"Point","coordinates":[-13.5461679,28.9650331]},"properties":{"facility_id":"regcess:0535002227","name":"C.S. VALTERRA","island_id":"lanzarote","status":"VERIFIED"}},{"type":"Feature","geometry":{"type":"Point","coordinates":[-13.774105,28.9383369]},"properties":{"facility_id":"regcess:0535002239","name":"C.S. YAIZA","island_id":"lanzarote","status":"VERIFIED"}},{"type":"Feature","geometry":{"type":"Point","coordinates":[-13.6112986,29.0005735]},"properties":{"facility_id":"regcess:0535002232","name":"CENTRO UNIVERSITARIO DE SALUD DE SAN BARTOLOME","island_id":"lanzarote","status":"VERIFIED"}},{"type":"Feature","geometry":{"type":"Point","coordinates":[-13.5596181,28.9682275]},"properties":{"facility_id":"regcess:0535002228","name":"CENTRO UNIVERSITARIO DE SALUD DE TITERROY","island_id":"lanzarote","status":"VERIFIED"}},{"type":"Feature","geometry":{"type":"Point","coordinates":[-16.8274125,28.1986214]},"properties":{"facility_id":"regcess:0538002203","name":"C.L. ALCALA","island_id":"tenerife","status":"VERIFIED"}},{"type":"Feature","geometry":{"type":"Point","coordinates":[-16.7570467,28.1301351]},"properties":{"facility_id":"regcess:0538002180","name":"C.L. ARMEÑIME","island_id":"tenerife","status":"VERIFIED"}},{"type":"Feature","geometry":{"type":"Point","coordinates":[-16.4999564,28.378674]},"properties":{"facility_id":"regcess:0538002252","name":"C.L. BARROSO","island_id":"tenerife","status":"VERIFIED"}},{"type":"Feature","geometry":{"type":"Point","coordinates":[-16.8510594,28.3743505]},"properties":{"facility_id":"regcess:0538002240","name":"C.L. BUENAVISTA","island_id":"tenerife","status":"VERIFIED"}},{"type":"Feature","geometry":{"type":"Point","coordinates":[-16.6606405,28.0878619]},"properties":{"facility_id":"regcess:0538002189","name":"C.L. CABO BLANCO","island_id":"tenerife","status":"VERIFIED"}},{"type":"Feature","geometry":{"type":"Point","coordinates":[-16.5307712,28.3690013]},"properties":{"facility_id":"regcess:0538002253","name":"C.L. CAMINO DE CHASNA","island_id":"tenerife","status":"VERIFIED"}},{"type":"Feature","geometry":{"type":"Point","coordinates":[-16.452527,28.45157]},"properties":{"facility_id":"regcess:0538002272","name":"C.L. CHAMIANA","island_id":"tenerife","status":"VERIFIED"}},{"type":"Feature","geometry":{"type":"Point","coordinates":[-16.7972107,28.2409393]},"properties":{"facility_id":"regcess:0538002205","name":"C.L. CHIO","island_id":"tenerife","status":"VERIFIED"}},{"type":"Feature","geometry":{"type":"Point","coordinates":[-16.5718038,28.37919]},"properties":{"facility_id":"regcess:0538002237","name":"C.L. CRUZ SANTA","island_id":"tenerife","status":"VERIFIED"}},{"type":"Feature","geometry":{"type":"Point","coordinates":[-16.4027542,28.4677363]},"properties":{"facility_id":"regcess:0538002262","name":"C.L. DE AGUA GARCIA","island_id":"tenerife","status":"VERIFIED"}},{"type":"Feature","geometry":{"type":"Point","coordinates":[-16.4190014,28.3414574]},"properties":{"facility_id":"regcess:0538002208","name":"C.L. DE ARAFO","island_id":"tenerife","status":"VERIFIED"}},{"type":"Feature","geometry":{"type":"Point","coordinates":[-16.6820818,28.0980335]},"properties":{"facility_id":"regcess:0538002185","name":"C.L. DE ARONA CASCO","island_id":"tenerife","status":"VERIFIED"}},{"type":"Feature","geometry":{"type":"Point","coordinates":[-16.4283008,28.2633892]},"properties":{"facility_id":"regcess:0538002210","name":"C.L. DE EL ESCOBONAL","island_id":"tenerife","status":"VERIFIED"}},{"type":"Feature","geometry":{"type":"Point","coordinates":[-16.4208155,28.4591156]},"properties":{"facility_id":"regcess:0538002261","name":"C.L. DE EL RAVELO","island_id":"tenerife","status":"VERIFIED"}},{"type":"Feature","geometry":{"type":"Point","coordinates":[-16.7706931,28.3587468]},"properties":{"facility_id":"regcess:0538002213","name":"C.L. DE EL TANQUE","island_id":"tenerife","status":"VERIFIED"}},{"type":"Feature","geometry":{"type":"Point","coordinates":[-16.4400479,28.2357979]},"properties":{"facility_id":"regcess:0538002207","name":"C.L. DE FASNIA","island_id":"tenerife","status":"VERIFIED"}},{"type":"Feature","geometry":{"type":"Point","coordinates":[-16.7644899,28.3726182]},"properties":{"facility_id":"regcess:0538002214","name":"C.L. DE GARACHICO","island_id":"tenerife","status":"VERIFIED"}},{"type":"Feature","geometry":{"type":"Point","coordinates":[-16.3700446,28.4936954]},"properties":{"facility_id":"regcess:0538002222","name":"C.L. DE GUAMASA","island_id":"tenerife","status":"VERIFIED"}},{"type":"Feature","geometry":{"type":"Point","coordinates":[-16.6125745,28.3838472]},"properties":{"facility_id":"regcess:0538002234","name":"C.L. DE ICOD EL ALTO","island_id":"tenerife","status":"VERIFIED"}},{"type":"Feature","geometry":{"type":"Point","coordinates":[-16.5501602,28.0724422]},"properties":{"facility_id":"regcess:0538002200","name":"C.L. DE SAN ISIDRO","island_id":"tenerife","status":"VERIFIED"}},{"type":"Feature","geometry":{"type":"Point","coordinates":[-16.6237,28.3507894]},"properties":{"facility_id":"regcess:0538002248","name":"C.L. DE SAN JOSE","island_id":"tenerife","status":"VERIFIED"}},{"type":"Feature","geometry":{"type":"Point","coordinates":[-16.3376687,28.5235393]},"properties":{"facility_id":"regcess:0538002265","name":"C.L. DE TEGUESTE","island_id":"tenerife","status":"VERIFIED"}},{"type":"Feature","geometry":{"type":"Point","coordinates":[-16.304697,28.446895]},"properties":{"facility_id":"regcess:0538002191","name":"C.L. DE TINCER","island_id":"tenerife","status":"VERIFIED"}},{"type":"Feature","geometry":{"type":"Point","coordinates":[-16.2961343,28.5446563]},"properties":{"facility_id":"regcess:0538002229","name":"C.L. EL BATAN","island_id":"tenerife","status":"VERIFIED"}},{"type":"Feature","geometry":{"type":"Point","coordinates":[-16.5369659,28.0468629]},"properties":{"facility_id":"regcess:0538002198","name":"C.L. EL MEDANO","island_id":"tenerife","status":"VERIFIED"}},{"type":"Feature","geometry":{"type":"Point","coordinates":[-16.3753089,28.2948913]},"properties":{"facility_id":"regcess:0538002211","name":"C.L. EL PUERTITO DE GUIMAR","island_id":"tenerife","status":"VERIFIED"}},{"type":"Feature","geometry":{"type":"Point","coordinates":[-16.7516544,28.32037]},"properties":{"facility_id":"regcess:0538002215","name":"C.L. GENOVES-SAN JUAN DEL REPARO","island_id":"tenerife","status":"VERIFIED"}},{"type":"Feature","geometry":{"type":"Point","coordinates":[-16.612725,28.042049]},"properties":{"facility_id":"regcess:0538002201","name":"C.L. GUARGACHO","island_id":"tenerife","status":"VERIFIED"}},{"type":"Feature","geometry":{"type":"Point","coordinates":[-16.4967777,28.4125626]},"properties":{"facility_id":"regcess:0538002255","name":"C.L. LA CORUJERA","island_id":"tenerife","status":"VERIFIED"}},{"type":"Feature","geometry":{"type":"Point","coordinates":[-16.3679238,28.4486413]},"properties":{"facility_id":"regcess:0538002221","name":"C.L. LA ESPERANZA","island_id":"tenerife","status":"VERIFIED"}},{"type":"Feature","geometry":{"type":"Point","coordinates":[-16.5581279,28.3720144]},"properties":{"facility_id":"regcess:0538002251","name":"C.L. LA PERDOMA","island_id":"tenerife","status":"VERIFIED"}},{"type":"Feature","geometry":{"type":"Point","coordinates":[-16.4727203,28.2415814]},"properties":{"facility_id":"regcess:0538002209","name":"C.L. LA ZARZA","island_id":"tenerife","status":"VERIFIED"}},{"type":"Feature","geometry":{"type":"Point","coordinates":[-16.6558967,28.0086349]},"properties":{"facility_id":"regcess:0538002270","name":"C.L. LAS GALLETAS","island_id":"tenerife","status":"VERIFIED"}},{"type":"Feature","geometry":{"type":"Point","coordinates":[-16.5813699,28.3695206]},"properties":{"facility_id":"regcess:0538002236","name":"C.L. PALO BLANCO","island_id":"tenerife","status":"VERIFIED"}},{"type":"Feature","geometry":{"type":"Point","coordinates":[-16.8173491,28.1842226]},"properties":{"facility_id":"regcess:0538002204","name":"C.L. PLAYA SAN JUAN","island_id":"tenerife","status":"VERIFIED"}},{"type":"Feature","geometry":{"type":"Point","coordinates":[-16.8406613,28.2382312]},"properties":{"facility_id":"regcess:0538002258","name":"C.L. PUERTO SANTIAGO","island_id":"tenerife","status":"VERIFIED"}},{"type":"Feature","geometry":{"type":"Point","coordinates":[-16.1947493,28.5072253]},"properties":{"facility_id":"regcess:0538002181","name":"C.L. SAN ANDRES","island_id":"tenerife","status":"VERIFIED"}},{"type":"Feature","geometry":{"type":"Point","coordinates":[-16.7583699,28.3631683]},"properties":{"facility_id":"regcess:0538002217","name":"C.L. SAN FRANCISCO - LA MONTAÑETA","island_id":"tenerife","status":"VERIFIED"}},{"type":"Feature","geometry":{"type":"Point","coordinates":[-16.3221189,28.4145137]},"properties":{"facility_id":"regcess:0538002273","name":"C.L. SAN ISIDRO - EL CHORRILLO","island_id":"tenerife","status":"VERIFIED"}},{"type":"Feature","geometry":{"type":"Point","coordinates":[-16.7871999,28.3270856]},"properties":{"facility_id":"regcess:0538002216","name":"C.L. SAN JOSE DE LOS LLANOS","island_id":"tenerife","status":"VERIFIED"}},{"type":"Feature","geometry":{"type":"Point","coordinates":[-16.6503708,28.3944419]},"properties":{"facility_id":"regcess:0538002247","name":"C.L. SAN JUAN DE LA RAMBLA","island_id":"tenerife","status":"VERIFIED"}},{"type":"Feature","geometry":{"type":"Point","coordinates":[-16.4106094,28.48323]},"properties":{"facility_id":"regcess:0538002263","name":"C.L. SAN JUAN PERALES","island_id":"tenerife","status":"VERIFIED"}},{"type":"Feature","geometry":{"type":"Point","coordinates":[-16.6133594,28.0788314]},"properties":{"facility_id":"regcess:0538002197","name":"C.L. SAN MIGUEL","island_id":"tenerife","status":"VERIFIED"}},{"type":"Feature","geometry":{"type":"Point","coordinates":[-16.3170851,28.472089]},"properties":{"facility_id":"regcess:0538002223","name":"C.L. SAN MIGUEL DE GENETO","island_id":"tenerife","status":"VERIFIED"}},{"type":"Feature","geometry":{"type":"Point","coordinates":[-16.815372,28.2936722]},"properties":{"facility_id":"regcess:0538002257","name":"C.L. SANTIAGO DEL TEIDE","island_id":"tenerife","status":"VERIFIED"}},{"type":"Feature","geometry":{"type":"Point","coordinates":[-16.6503,28.393793]},"properties":{"facility_id":"regcess:0538002249","name":"C.L. SANTO DOMINGO","island_id":"tenerife","status":"VERIFIED"}},{"type":"Feature","geometry":{"type":"Point","coordinates":[-16.3911,28.520264]},"properties":{"facility_id":"regcess:0538002266","name":"C.L. VALLE DE GUERRA","island_id":"tenerife","status":"VERIFIED"}},{"type":"Feature","geometry":{"type":"Point","coordinates":[-16.6568974,28.0910851]},"properties":{"facility_id":"regcess:0538002187","name":"C.L. VALLE SAN LORENZO","island_id":"tenerife","status":"VERIFIED"}},{"type":"Feature","geometry":{"type":"Point","coordinates":[-16.725977,28.12321]},"properties":{"facility_id":"regcess:0538002179","name":"C.S. ADEJE","island_id":"tenerife","status":"VERIFIED"}},{"type":"Feature","geometry":{"type":"Point","coordinates":[-16.4808279,28.189481]},"properties":{"facility_id":"regcess:0538002183","name":"C.S. ARICO","island_id":"tenerife","status":"VERIFIED"}},{"type":"Feature","geometry":{"type":"Point","coordinates":[-16.6564299,28.0896233]},"properties":{"facility_id":"regcess:0538002186","name":"C.S. ARONA VILAFLOR - VALLE SAN LORENZO","island_id":"tenerife","status":"VERIFIED"}},{"type":"Feature","geometry":{"type":"Point","coordinates":[-16.2707017,28.4674215]},"properties":{"facility_id":"regcess:0538002192","name":"C.S. BARRIO DE LA SALUD","island_id":"tenerife","status":"VERIFIED"}},{"type":"Feature","geometry":{"type":"Point","coordinates":[-16.3617591,28.3771485]},"properties":{"facility_id":"regcess:0538002193","name":"C.S. CANDELARIA","island_id":"tenerife","status":"VERIFIED"}},{"type":"Feature","geometry":{"type":"Point","coordinates":[-16.560946,28.4039088]},"properties":{"facility_id":"regcess:0538002196","name":"C.S. CASCO BOTANICO","island_id":"tenerife","status":"VERIFIED"}},{"type":"Feature","geometry":{"type":"Point","coordinates":[-16.3002209,28.42418]},"properties":{"facility_id":"regcess:0538002178","name":"C.S. DE AÑAZA","island_id":"tenerife","status":"VERIFIED"}},{"type":"Feature","geometry":{"type":"Point","coordinates":[-16.3098077,28.4351466]},"properties":{"facility_id":"regcess:0538002190","name":"C.S. DE BARRANCO GRANDE","island_id":"tenerife","status":"VERIFIED"}},{"type":"Feature","geometry":{"type":"Point","coordinates":[-16.4070599,28.3162445]},"properties":{"facility_id":"regcess:0538002206","name":"C.S. DE GUIMAR","island_id":"tenerife","status":"VERIFIED"}},{"type":"Feature","geometry":{"type":"Point","coordinates":[-16.7206681,28.3693476]},"properties":{"facility_id":"regcess:0538002212","name":"C.S. DE ICOD","island_id":"tenerife","status":"VERIFIED"}},{"type":"Feature","geometry":{"type":"Point","coordinates":[-16.5831181,28.3844988]},"properties":{"facility_id":"regcess:0538002233","name":"C.S. DE LOS REALEJOS","island_id":"tenerife","status":"VERIFIED"}},{"type":"Feature","geometry":{"type":"Point","coordinates":[-16.8167248,28.3658459]},"properties":{"facility_id":"regcess:0538002239","name":"C.S. DE LOS SILOS","island_id":"tenerife","status":"VERIFIED"}},{"type":"Feature","geometry":{"type":"Point","coordinates":[-16.2868025,28.4491754]},"properties":{"facility_id":"regcess:0538002242","name":"C.S. DE OFRA DELICIAS","island_id":"tenerife","status":"VERIFIED"}},{"type":"Feature","geometry":{"type":"Point","coordinates":[-16.2868025,28.4491754]},"properties":{"facility_id":"regcess:0538002243","name":"C.S. DE OFRA MIRAMAR","island_id":"tenerife","status":"VERIFIED"}},{"type":"Feature","geometry":{"type":"Point","coordinates":[-16.4919701,28.4264234]},"properties":{"facility_id":"regcess:0538002254","name":"C.S. DE SANTA URSULA","island_id":"tenerife","status":"VERIFIED"}},{"type":"Feature","geometry":{"type":"Point","coordinates":[-16.2994146,28.4474565]},"properties":{"facility_id":"regcess:0538002219","name":"C.S. DE TACO","island_id":"tenerife","status":"VERIFIED"}},{"type":"Feature","geometry":{"type":"Point","coordinates":[-16.4170994,28.4758362]},"properties":{"facility_id":"regcess:0538002259","name":"C.S. DE TACORONTE","island_id":"tenerife","status":"VERIFIED"}},{"type":"Feature","geometry":{"type":"Point","coordinates":[-16.322769,28.486441]},"properties":{"facility_id":"regcess:0538002264","name":"C.S. DE TEJINA","island_id":"tenerife","status":"VERIFIED"}},{"type":"Feature","geometry":{"type":"Point","coordinates":[-16.6686863,28.012789]},"properties":{"facility_id":"regcess:0538002269","name":"C.S. EL FRAILE - ARONA COSTA II","island_id":"tenerife","status":"VERIFIED"}},{"type":"Feature","geometry":{"type":"Point","coordinates":[-16.2821778,28.4702342]},"properties":{"facility_id":"regcess:0538002218","name":"C.S. LA CUESTA","island_id":"tenerife","status":"VERIFIED"}},{"type":"Feature","geometry":{"type":"Point","coordinates":[-16.303885,28.4827081]},"properties":{"facility_id":"regcess:0538002224","name":"C.S. LA CUESTA - FINCA ESPAÑA","island_id":"tenerife","status":"VERIFIED"}},{"type":"Feature","geometry":{"type":"Point","coordinates":[-16.6503337,28.3757472]},"properties":{"facility_id":"regcess:0538002246","name":"C.S. LA GUANCHA","island_id":"tenerife","status":"VERIFIED"}},{"type":"Feature","geometry":{"type":"Point","coordinates":[-16.3158619,28.487028]},"properties":{"facility_id":"regcess:0538002287","name":"C.S. LA LAGUNA MERCEDES","island_id":"tenerife","status":"VERIFIED"}},{"type":"Feature","geometry":{"type":"Point","coordinates":[-16.3243984,28.4883594]},"properties":{"facility_id":"regcess:0538002220","name":"C.S. LA LAGUNGA SAN BENITO","island_id":"tenerife","status":"VERIFIED"}},{"type":"Feature","geometry":{"type":"Point","coordinates":[-16.4555462,28.4528851]},"properties":{"facility_id":"regcess:0538002271","name":"C.S. LA MATANZA","island_id":"tenerife","status":"VERIFIED"}},{"type":"Feature","geometry":{"type":"Point","coordinates":[-16.5563335,28.3968669]},"properties":{"facility_id":"regcess:0538002245","name":"C.S. LA VERA - SAN ANTONIO","island_id":"tenerife","status":"VERIFIED"}},{"type":"Feature","geometry":{"type":"Point","coordinates":[-16.268836,28.4601528]},"properties":{"facility_id":"regcess:0538002232","name":"C.S. LOS GLADIOLOS","island_id":"tenerife","status":"VERIFIED"}},{"type":"Feature","geometry":{"type":"Point","coordinates":[-16.5145799,28.394755]},"properties":{"facility_id":"regcess:0538002244","name":"C.S. OROTAVA - DEHESA","island_id":"tenerife","status":"VERIFIED"}},{"type":"Feature","geometry":{"type":"Point","coordinates":[-16.53509,28.38023]},"properties":{"facility_id":"regcess:0538002250","name":"C.S. OROTAVA - SAN ANTONIO","island_id":"tenerife","status":"VERIFIED"}},{"type":"Feature","geometry":{"type":"Point","coordinates":[-16.249344,28.468517]},"properties":{"facility_id":"regcess:0538002268","name":"C.S. RUIZ DE PADRON","island_id":"tenerife","status":"VERIFIED"}},{"type":"Feature","geometry":{"type":"Point","coordinates":[-16.8179488,28.2703014]},"properties":{"facility_id":"regcess:0538002256","name":"C.S. TAMAIMO","island_id":"tenerife","status":"VERIFIED"}},{"type":"Feature","geometry":{"type":"Point","coordinates":[-16.316828,28.4850722]},"properties":{"facility_id":"regcess:0538004115","name":"CENTRO DE SALUD LA UNIVERSIDAD","island_id":"tenerife","status":"VERIFIED"}},{"type":"Feature","geometry":{"type":"Point","coordinates":[-16.8499615,28.3735695]},"properties":{"facility_id":"regcess:0538005432","name":"CONSULTORIO LOCAL BUENAVISTA DEL NORTE","island_id":"tenerife","status":"VERIFIED"}},{"type":"Feature","geometry":{"type":"Point","coordinates":[-16.6180245,28.0557313]},"properties":{"facility_id":"regcess:0538004830","name":"CONSULTORIO LOCAL DE LAS CHAFIRAS","island_id":"tenerife","status":"VERIFIED"}},{"type":"Feature","geometry":{"type":"Point","coordinates":[-16.7113298,28.0585283]},"properties":{"facility_id":"regcess:0538002143","name":"SCS-CENTRO DE SALUD ARONA COSTA I","island_id":"tenerife","status":"VERIFIED"}},{"type":"Feature","geometry":{"type":"Point","coordinates":[-16.2542486,28.4664336]},"properties":{"facility_id":"regcess:0538002042","name":"SCS-CENTRO DE SALUD DR. GUIGOU","island_id":"tenerife","status":"VERIFIED"}},{"type":"Feature","geometry":{"type":"Point","coordinates":[-16.526856,28.1264922]},"properties":{"facility_id":"regcess:0538002142","name":"SCS-CENTRO DE SALUD GRANADILLA","island_id":"tenerife","status":"VERIFIED"}},{"type":"Feature","geometry":{"type":"Point","coordinates":[-16.7817045,28.2145959]},"properties":{"facility_id":"regcess:0538002145","name":"SCS-CENTRO DE SALUD GUIA DE ISORA","island_id":"tenerife","status":"VERIFIED"}}]}