{"type":"FeatureCollection","features":[{"type":"Feature","geometry":{"type":"Point","coordinates":[-15.725632187575213,28.046164785953497]},"properties":{"station_id":"weather-2","name":"MTD3016CP (SN: 0379)","island_id":"gran-canaria","municipality_id":"35001","status":"PENDING_OBSERVATIONS","source":"SITCAN SICOM"}},{"type":"Feature","geometry":{"type":"Point","coordinates":[-16.819303793235154,28.26829646942575]},"properties":{"station_id":"weather-3","name":"MTD3016CP (SN: 0380)","island_id":"tenerife","municipality_id":"38040","status":"PENDING_OBSERVATIONS","source":"SITCAN SICOM"}},{"type":"Feature","geometry":{"type":"Point","coordinates":[-17.847346318320835,28.49275773570522]},"properties":{"station_id":"weather-4","name":"MTD3016CP (SN: 0381)","island_id":"la-palma","municipality_id":"38014","status":"PENDING_OBSERVATIONS","source":"SITCAN SICOM"}},{"type":"Feature","geometry":{"type":"Point","coordinates":[-16.2770308401483,28.55396780264714]},"properties":{"station_id":"weather-5","name":"MTD3016CP (SN: 0382)","island_id":"tenerife","municipality_id":"38023","status":"PENDING_OBSERVATIONS","source":"SITCAN SICOM"}},{"type":"Feature","geometry":{"type":"Point","coordinates":[-13.566837502764221,29.117739275271294]},"properties":{"station_id":"weather-6","name":"MTD3016CP (SN: 0383)","island_id":"lanzarote","municipality_id":"35024","status":"PENDING_OBSERVATIONS","source":"SITCAN SICOM"}},{"type":"Feature","geometry":{"type":"Point","coordinates":[-15.63233351579239,28.14059497904326]},"properties":{"station_id":"weather-7","name":"MTD3016CP (SN: 0384)","island_id":"gran-canaria","municipality_id":"35023","status":"PENDING_OBSERVATIONS","source":"SITCAN SICOM"}},{"type":"Feature","geometry":{"type":"Point","coordinates":[-13.555249574747043,29.0614678040927]},"properties":{"station_id":"weather-8","name":"MTD3016CP (SN: 0385)","island_id":"lanzarote","municipality_id":"35024","status":"PENDING_OBSERVATIONS","source":"SITCAN SICOM"}},{"type":"Feature","geometry":{"type":"Point","coordinates":[-16.292337071782708,28.467173667455896]},"properties":{"station_id":"weather-9","name":"MTD3016CP (SN: 0386)","island_id":"tenerife","municipality_id":"38023","status":"PENDING_OBSERVATIONS","source":"SITCAN SICOM"}},{"type":"Feature","geometry":{"type":"Point","coordinates":[-15.584156541632426,28.107409919574643]},"properties":{"station_id":"weather-10","name":"MTD3016CP (SN: 0387)","island_id":"gran-canaria","municipality_id":"35013","status":"PENDING_OBSERVATIONS","source":"SITCAN SICOM"}},{"type":"Feature","geometry":{"type":"Point","coordinates":[-13.49008667588927,29.000694511748907]},"properties":{"station_id":"weather-11","name":"MTD3016CP (SN: 0388)","island_id":"lanzarote","municipality_id":"35024","status":"PENDING_OBSERVATIONS","source":"SITCAN SICOM"}},{"type":"Feature","geometry":{"type":"Point","coordinates":[-14.225028032420791,28.166335915467954]},"properties":{"station_id":"weather-12","name":"MTD3016CP (SN: 0389)","island_id":"fuerteventura","municipality_id":"35015","status":"PENDING_OBSERVATIONS","source":"SITCAN SICOM"}},{"type":"Feature","geometry":{"type":"Point","coordinates":[-18.008235320585836,27.754082546986602]},"properties":{"station_id":"weather-13","name":"MTD3016CP (SN: 0390)","island_id":"el-hierro","municipality_id":"38013_2007","status":"PENDING_OBSERVATIONS","source":"SITCAN SICOM"}},{"type":"Feature","geometry":{"type":"Point","coordinates":[-15.42064990988915,28.15071547311954]},"properties":{"station_id":"weather-14","name":"MTD3016CP (SN: 0391)","island_id":"gran-canaria","municipality_id":"35016","status":"PENDING_OBSERVATIONS","source":"SITCAN SICOM"}},{"type":"Feature","geometry":{"type":"Point","coordinates":[-15.563562172392002,27.88679722612621]},"properties":{"station_id":"weather-15","name":"MTD3016CP (SN: 0392)","island_id":"gran-canaria","municipality_id":"35019","status":"PENDING_OBSERVATIONS","source":"SITCAN SICOM"}},{"type":"Feature","geometry":{"type":"Point","coordinates":[-14.108413049202666,28.350247322066664]},"properties":{"station_id":"weather-16","name":"MTD3016CP (SN: 0393)","island_id":"fuerteventura","municipality_id":"35015","status":"PENDING_OBSERVATIONS","source":"SITCAN SICOM"}},{"type":"Feature","geometry":{"type":"Point","coordinates":[-14.055572902625688,28.42416072934898]},"properties":{"station_id":"weather-17","name":"MTD3016CP (SN: 0394)","island_id":"fuerteventura","municipality_id":"35007","status":"PENDING_OBSERVATIONS","source":"SITCAN SICOM"}},{"type":"Feature","geometry":{"type":"Point","coordinates":[-16.75689429313361,28.340361823312847]},"properties":{"station_id":"weather-18","name":"MTD3016CP (SN: 0395)","island_id":"tenerife","municipality_id":"38015","status":"PENDING_OBSERVATIONS","source":"SITCAN SICOM"}},{"type":"Feature","geometry":{"type":"Point","coordinates":[-15.534426598073297,28.09566411039148]},"properties":{"station_id":"weather-19","name":"MTD3016CP (SN: 0396)","island_id":"gran-canaria","municipality_id":"35006","status":"PENDING_OBSERVATIONS","source":"SITCAN SICOM"}},{"type":"Feature","geometry":{"type":"Point","coordinates":[-15.72237060234272,27.883128287956577]},"properties":{"station_id":"weather-20","name":"MTD3016CP (SN: 0397)","island_id":"gran-canaria","municipality_id":"35012","status":"PENDING_OBSERVATIONS","source":"SITCAN SICOM"}},{"type":"Feature","geometry":{"type":"Point","coordinates":[-14.037181818333085,28.351191064358563]},"properties":{"station_id":"weather-21","name":"MTD3016CP (SN: 0398)","island_id":"fuerteventura","municipality_id":"35030","status":"PENDING_OBSERVATIONS","source":"SITCAN SICOM"}},{"type":"Feature","geometry":{"type":"Point","coordinates":[-16.528673321794106,28.367153388517114]},"properties":{"station_id":"weather-22","name":"MTD3016CP (SN: 0399)","island_id":"tenerife","municipality_id":"38026","status":"PENDING_OBSERVATIONS","source":"SITCAN SICOM"}},{"type":"Feature","geometry":{"type":"Point","coordinates":[-13.554681688295693,28.961034494301934]},"properties":{"station_id":"weather-23","name":"MTD3016CP (SN: 0400)","island_id":"lanzarote","municipality_id":"35004","status":"PENDING_OBSERVATIONS","source":"SITCAN SICOM"}},{"type":"Feature","geometry":{"type":"Point","coordinates":[-17.80038373908278,28.55413231393452]},"properties":{"station_id":"weather-24","name":"MTD3016CP (SN: 0401)","island_id":"la-palma","municipality_id":"38053","status":"PENDING_OBSERVATIONS","source":"SITCAN SICOM"}},{"type":"Feature","geometry":{"type":"Point","coordinates":[-15.540719012113314,28.003039965805883]},"properties":{"station_id":"weather-25","name":"MTD3016CP (SN: 0402)","island_id":"gran-canaria","municipality_id":"35033","status":"PENDING_OBSERVATIONS","source":"SITCAN SICOM"}},{"type":"Feature","geometry":{"type":"Point","coordinates":[-18.040737843081814,27.72889734905256]},"properties":{"station_id":"weather-26","name":"MTD3016CP (SN: 0407)","island_id":"el-hierro","municipality_id":"38901","status":"PENDING_OBSERVATIONS","source":"SITCAN SICOM"}},{"type":"Feature","geometry":{"type":"Point","coordinates":[-15.444082954808087,27.857672401074392]},"properties":{"station_id":"weather-27","name":"MTD3016CP (SN: 0426)","island_id":"gran-canaria","municipality_id":"35022","status":"PENDING_OBSERVATIONS","source":"SITCAN SICOM"}},{"type":"Feature","geometry":{"type":"Point","coordinates":[-16.666329348542273,28.11873894117206]},"properties":{"station_id":"weather-28","name":"MTD3016CP (SN: 0425)","island_id":"tenerife","municipality_id":"38052","status":"PENDING_OBSERVATIONS","source":"SITCAN SICOM"}},{"type":"Feature","geometry":{"type":"Point","coordinates":[-17.213267646030985,28.13631512342532]},"properties":{"station_id":"weather-29","name":"MTD3016CP (SN: 0404)","island_id":"la-gomera","municipality_id":"38021","status":"PENDING_OBSERVATIONS","source":"SITCAN SICOM"}},{"type":"Feature","geometry":{"type":"Point","coordinates":[-17.324995753807325,28.160729754641935]},"properties":{"station_id":"weather-30","name":"MTD3016CP (SN: 0428)","island_id":"la-gomera","municipality_id":"38050","status":"PENDING_OBSERVATIONS","source":"SITCAN SICOM"}},{"type":"Feature","geometry":{"type":"Point","coordinates":[-13.451369372999995,29.21933577948389]},"properties":{"station_id":"weather-31","name":"MTD3016CP (SN: 0429)","island_id":"lanzarote","municipality_id":"35010","status":"PENDING_OBSERVATIONS","source":"SITCAN SICOM"}},{"type":"Feature","geometry":{"type":"Point","coordinates":[-13.755922270236848,28.951077121023047]},"properties":{"station_id":"weather-32","name":"MTD3016CP (SN: 0403)","island_id":"lanzarote","municipality_id":"35034","status":"PENDING_OBSERVATIONS","source":"SITCAN SICOM"}},{"type":"Feature","geometry":{"type":"Point","coordinates":[-17.915174187363913,27.768879260626836]},"properties":{"station_id":"weather-33","name":"MTD3016CP (SN: 0427)","island_id":"el-hierro","municipality_id":"38048","status":"PENDING_OBSERVATIONS","source":"SITCAN SICOM"}},{"type":"Feature","geometry":{"type":"Point","coordinates":[-18.14767490014493,27.72790950421546]},"properties":{"station_id":"weather-34","name":"MTD3016CP (SN: 0405)","island_id":"el-hierro","municipality_id":"38013_2007","status":"PENDING_OBSERVATIONS","source":"SITCAN SICOM"}},{"type":"Feature","geometry":{"type":"Point","coordinates":[-17.93302122406685,28.752351090320573]},"properties":{"station_id":"weather-35","name":"MTD3016CP (SN: 0408)","island_id":"la-palma","municipality_id":"38029","status":"PENDING_OBSERVATIONS","source":"SITCAN SICOM"}},{"type":"Feature","geometry":{"type":"Point","coordinates":[-16.241856077277884,28.514957372667173]},"properties":{"station_id":"weather-36","name":"MTD3016CP (SN: 0446)","island_id":"tenerife","municipality_id":"38038","status":"PENDING_OBSERVATIONS","source":"SITCAN SICOM"}},{"type":"Feature","geometry":{"type":"Point","coordinates":[-16.62553978931339,28.32790322843]},"properties":{"station_id":"weather-37","name":"MTD3016CP (SN: 0445)","island_id":"tenerife","municipality_id":"38018","status":"PENDING_OBSERVATIONS","source":"SITCAN SICOM"}},{"type":"Feature","geometry":{"type":"Point","coordinates":[-17.23993943148774,28.06288030345269]},"properties":{"station_id":"weather-38","name":"MTD3016CP (SN: 0448)","island_id":"la-gomera","municipality_id":"38003","status":"PENDING_OBSERVATIONS","source":"SITCAN SICOM"}},{"type":"Feature","geometry":{"type":"Point","coordinates":[-17.80364392173149,28.621575857082334]},"properties":{"station_id":"weather-39","name":"MTD3016CP (SN: 0458)","island_id":"la-palma","municipality_id":"38009","status":"PENDING_OBSERVATIONS","source":"SITCAN SICOM"}},{"type":"Feature","geometry":{"type":"Point","coordinates":[-17.25294749749229,28.202382909545705]},"properties":{"station_id":"weather-40","name":"MTD3016CP (SN: 0449)","island_id":"la-gomera","municipality_id":"38050","status":"PENDING_OBSERVATIONS","source":"SITCAN SICOM"}},{"type":"Feature","geometry":{"type":"Point","coordinates":[-15.68235121750555,28.01030936270712]},"properties":{"station_id":"weather-41","name":"MTD3016CP (SN: 0450)","island_id":"gran-canaria","municipality_id":"35005","status":"PENDING_OBSERVATIONS","source":"SITCAN SICOM"}},{"type":"Feature","geometry":{"type":"Point","coordinates":[-15.414397120966504,27.99939025248747]},"properties":{"station_id":"weather-42","name":"MTD3016CP (SN: 0451)","island_id":"gran-canaria","municipality_id":"35026","status":"PENDING_OBSERVATIONS","source":"SITCAN SICOM"}},{"type":"Feature","geometry":{"type":"Point","coordinates":[-15.730398766405795,27.933180170777817]},"properties":{"station_id":"weather-43","name":"MTD3016CP (SN: 0452)","island_id":"gran-canaria","municipality_id":"35012","status":"PENDING_OBSERVATIONS","source":"SITCAN SICOM"}},{"type":"Feature","geometry":{"type":"Point","coordinates":[-16.683871771694157,28.005849724777484]},"properties":{"station_id":"weather-44","name":"MTD3016CP (SN: 0459)","island_id":"tenerife","municipality_id":"38006","status":"PENDING_OBSERVATIONS","source":"SITCAN SICOM"}},{"type":"Feature","geometry":{"type":"Point","coordinates":[-16.288840409812938,28.494232982719446]},"properties":{"station_id":"weather-45","name":"MTD3016CP (SN: 0453)","island_id":"tenerife","municipality_id":"38023","status":"PENDING_OBSERVATIONS","source":"SITCAN SICOM"}},{"type":"Feature","geometry":{"type":"Point","coordinates":[-16.838161919121422,28.23341202494747]},"properties":{"station_id":"weather-46","name":"MTD3016CP (SN: 0454)","island_id":"tenerife","municipality_id":"38040","status":"PENDING_OBSERVATIONS","source":"SITCAN SICOM"}},{"type":"Feature","geometry":{"type":"Point","coordinates":[-16.716917942488553,28.057623302788404]},"properties":{"station_id":"weather-47","name":"MTD3016CP (SN: 0455)","island_id":"tenerife","municipality_id":"38006","status":"PENDING_OBSERVATIONS","source":"SITCAN SICOM"}},{"type":"Feature","geometry":{"type":"Point","coordinates":[-14.008824652560094,28.68312093437933]},"properties":{"station_id":"weather-48","name":"MTD3016CP (SN: 0460)","island_id":"fuerteventura","municipality_id":"35014","status":"PENDING_OBSERVATIONS","source":"SITCAN SICOM"}},{"type":"Feature","geometry":{"type":"Point","coordinates":[-16.32573868031188,28.56950535030508]},"properties":{"station_id":"weather-49","name":"MTD3016CP (SN: 0461)","island_id":"tenerife","municipality_id":"38023","status":"PENDING_OBSERVATIONS","source":"SITCAN SICOM"}},{"type":"Feature","geometry":{"type":"Point","coordinates":[-16.32394055672787,28.41041988307398]},"properties":{"station_id":"weather-50","name":"MTD3016CP (SN: 0409)","island_id":"tenerife","municipality_id":"38032","status":"PENDING_OBSERVATIONS","source":"SITCAN SICOM"}},{"type":"Feature","geometry":{"type":"Point","coordinates":[-16.90852984008341,28.356378540693843]},"properties":{"station_id":"weather-51","name":"MTD3016CP (SN: 0462)","island_id":"tenerife","municipality_id":"38010","status":"PENDING_OBSERVATIONS","source":"SITCAN SICOM"}},{"type":"Feature","geometry":{"type":"Point","coordinates":[-13.856649854046086,28.505365421637748]},"properties":{"station_id":"weather-52","name":"MTD3016CP (SN: 0463)","island_id":"fuerteventura","municipality_id":"35017","status":"PENDING_OBSERVATIONS","source":"SITCAN SICOM"}},{"type":"Feature","geometry":{"type":"Point","coordinates":[-13.99380079375684,28.525120862894653]},"properties":{"station_id":"weather-53","name":"MTD3016CP (SN: 0456)","island_id":"fuerteventura","municipality_id":"35017","status":"PENDING_OBSERVATIONS","source":"SITCAN SICOM"}},{"type":"Feature","geometry":{"type":"Point","coordinates":[-16.73359612528364,28.169011311312257]},"properties":{"station_id":"weather-54","name":"MTD3016CP (SN: 0447)","island_id":"tenerife","municipality_id":"38001","status":"PENDING_OBSERVATIONS","source":"SITCAN SICOM"}},{"type":"Feature","geometry":{"type":"Point","coordinates":[-17.16039170491637,28.11713332161937]},"properties":{"station_id":"weather-55","name":"MTD3016CP (SN: 0465)","island_id":"la-gomera","municipality_id":"38036","status":"PENDING_OBSERVATIONS","source":"SITCAN SICOM"}},{"type":"Feature","geometry":{"type":"Point","coordinates":[-16.267797059024,28.453829218127]},"properties":{"station_id":"weather-56","name":"MTD3016CP (SN: 0457)","island_id":"tenerife","municipality_id":"38038","status":"PENDING_OBSERVATIONS","source":"SITCAN SICOM"}},{"type":"Feature","geometry":{"type":"Point","coordinates":[-17.76858773999478,28.687726183896554]},"properties":{"station_id":"weather-57","name":"MTD3016CP (SN: 0466)","island_id":"la-palma","municipality_id":"38037","status":"PENDING_OBSERVATIONS","source":"SITCAN SICOM"}},{"type":"Feature","geometry":{"type":"Point","coordinates":[-14.115437411290326,28.19411108915836]},"properties":{"station_id":"weather-58","name":"MTD3016CP (SN: 0464)","island_id":"fuerteventura","municipality_id":"35030","status":"PENDING_OBSERVATIONS","source":"SITCAN SICOM"}}]}